#cP2017  5 17  0  0  0.00000000     192 ORBIT IGS14 HLM  IGS
## 1949 259200.00000000   900.00000000 57890 0.0000000000000
+   31   G01G02G03G05G06G07G08G09G10G11G12G13G14G15G16G17G18
+        G19G20G21G22G23G24G25G26G27G28G29G30G31G32  0  0  0
+          0  0  0  0  0  0  0  0  0  0  0  0  0  0  0  0  0
+          0  0  0  0  0  0  0  0  0  0  0  0  0  0  0  0  0
+          0  0  0  0  0  0  0  0  0  0  0  0  0  0  0  0  0
++         3  3  3  3  3  3  4  3  3  3  3  4  3  3  3  3  3
++         3  3  3  3  3  4  3  3  4  3  3  3  3  3  0  0  0
++         0  0  0  0  0  0  0  0  0  0  0  0  0  0  0  0  0
++         0  0  0  0  0  0  0  0  0  0  0  0  0  0  0  0  0
++         0  0  0  0  0  0  0  0  0  0  0  0  0  0  0  0  0
%c G  cc GPS ccc cccc cccc cccc cccc ccccc ccccc ccccc ccccc
%c cc cc ccc ccc cccc cccc cccc cccc ccccc ccccc ccccc ccccc
%f  1.2500000  1.025000000  0.00000000000  0.000000000000000
%f  0.0000000  0.000000000  0.00000000000  0.000000000000000
%i    0    0    0    0      0      0      0      0         0
%i    0    0    0    0      0      0      0      0         0
/* ULTRA ORBIT COMBINATION 19494_00 (57891.000) FROM:       
/* cou emu esu gfu siu usu whu                              
/* REFERENCED TO emu CLOCK AND TO WEIGHTED MEAN POLE:       
/* PCV:IGS14_1930 OL/AL:FES2004  NONE     Y  ORB:CMB CLK:CMB
*  2017  5 17  3 45  0.00000000
PG01   6400.106375  14118.104402 -21705.668084     54.775719  4  4  4 224       
PG02  15637.644632 -14965.836774  15680.870096    418.128151  7  9  8 218       
PG03  12493.552858  22495.493213  -6650.864709   -100.063025  4  6 10 179       
PG05   5445.439815 -16119.724289  20264.286891    -45.663509  5  6  5 164       
PG06  25637.249061  -6377.089483   2852.000012    351.906794  1  7  9 202       
PG07  20192.408141   8094.669871  15703.914099    350.623713  5  9  5 173       
PG08  -4996.366232  25386.142026  -5718.988949    -59.972097  9 10  8 167       
PG09  11508.743649  11687.296656  20863.849473    364.874762  7  9  8 187       
PG10 -19480.127729  -4168.693946 -17592.483327    -51.745555  7  8  7 197       
PG11    995.359035  18097.046331 -19998.357049   -688.634343  9  5  6 190       
PG12  -7266.320847 -22923.516646 -11667.730961    383.435792  8  7  5 223       
PG13  12139.262594 -23653.571907     36.874926    -82.045741  8  7  9 212       
PG14 -17330.464052  13815.224129 -14240.674624    -70.974969  9  9  5 140       
PG15    166.365442 -24799.112509  -9153.365234   -350.027201  7  4  6 182       
PG16  -6807.177096  14371.588479  21060.170850     33.400469  8  7  5 187       
PG17  16531.924877  -4861.923341 -19808.194113   -179.241504  3  8  8 181       
PG18 -21130.496908 -12812.120713  -9416.500346    615.831004 10 10  8 123       
PG19  17824.448463 -12608.235817 -15590.748513   -503.370669  5 10  7 224       
PG20 -10037.593462 -21852.351217  11139.529396    472.524968  5  9  7 196       
PG21 -23712.450386  -4141.005568  12139.111682   -506.559718  6  9  8 176       
PG22   4893.817773  21612.008838 -14354.842761      7.636929  8  9  8 214       
PG23   4160.531780  21177.674972  15424.963902   -211.899357  8  6  8 195       
PG24  -3573.566459 -15176.213704 -21591.759634    -34.915568  9  6  7 178       
PG25 -17597.067092 -19994.518991   1373.756461   -388.515342  5  5  5 187       
PG26 -14423.666126   6228.755200  21419.770987   -503.468878  6  2  6 146       
PG27 -12464.545723  22593.648434   5734.217530    258.998537 10 12  3 188       
PG28  18928.419950   9295.802075 -15518.970509    613.406031  3  7  8 216       
PG29  -8319.409213 -14893.221650  20358.918443    603.665316  7 10  7 222       
PG30  26277.681467    313.236952   4318.407415    156.677403  4  8  9 190       
PG31 -25397.108899   6899.804527   4980.195440    200.645030  9  8  4 234       
PG32 -16893.155884   6541.558644 -19388.615539   -415.700036  6  8  6 206       
*  2017  5 17  4  0  0.00000000
PG01   3978.133300  14602.345801 -21940.220665     54.776141  2  4  4 224       
PG02  17255.580303 -15140.952030  13581.134099    418.121016  7 10  7 223       
PG03  11711.470274  21968.847134  -9302.757593   -100.061340  4  7  9 178       
PG05   7119.509751 -14414.186961  21031.256132    -45.661629  5  6  5 153       
PG06  25841.240127  -6178.161640     -9.289021    351.911332  2  7  9 201       
PG07  18388.507299   8556.210307  17547.232751    350.619718  5  9  3 171       
PG08  -5380.619100  25787.132107  -2902.081010    -59.972856 10 11  7 171       
PG09  10697.618476  13885.382567  19927.368216    364.881975  7  9  8 190       
PG10 -20628.063933  -5704.098429 -15771.503348    -51.736725  7  8  7 196       
PG11   -862.997280  19174.561606 -18947.724482   -688.636955  9  5  5 193       
PG12  -6282.795951 -21870.226676 -14033.597864    383.434846  8  8  5 219       
PG13  12266.396013 -23394.157854   2901.575579    -82.047335  8  8  8 213       
PG14 -16808.603836  12086.123067 -16271.291398    -70.976394  8  9  3 158       
PG15    722.584629 -25576.101146  -6539.926713   -350.028120  7  4  5 190       
PG16  -8344.902483  12428.237387  21763.425771     33.401327  7  7  5 198       
PG17  15739.081447  -2596.857116 -20848.511861   -179.239888  3  8  8 182       
PG18 -21592.511777 -13759.146383  -6860.138927    615.832722 10 10  8 134       
PG19  17182.366424 -10886.565883 -17499.845447   -503.369613  5  9  6 231       
PG20  -8793.723364 -21085.905402  13407.362796    472.526843  4  9  7 200       
PG21 -22400.418051  -4688.250956  14363.250356   -506.558078  4  9  8 177       
PG22   3455.985986  20492.667458 -16261.104907      7.625958  8 10  7 216       
PG23   3421.807011  22647.576260  13303.611708   -211.900213  8  6  8 195       
PG24  -1183.335288 -15715.095220 -21447.104064    -34.916004  9  4  7 184       
PG25 -17458.314688 -20128.437948  -1501.172079   -388.521246  6  5  5 176       
PG26 -15998.948851   4399.621013  20752.341742   -503.464911  6  3  5 139       
PG27 -12414.338097  21743.407300   8474.241385    259.004513 10 12  5 184       
PG28  19852.546842  10784.932777 -13334.279450    613.408735  4  8  8 218       
PG29  -7399.720754 -16949.943848  19067.821977    603.662130  8  9  7 217       
PG30  25672.269165    671.526931   7041.475528    156.676461  4  8  9 191       
PG31 -25822.175795   6765.387362   2172.821065    200.642775  8  9  5 232       
PG32 -16278.617097   4334.870332 -20504.456527   -415.709366  6  8  5 201       
*  2017  5 17  4 15  0.00000000
PG01   1577.733139  15217.419306 -21801.212263     54.776529  3  5  4 222       
PG02  18630.826768 -15320.341175  11250.651870    418.114033  7 10  7 223       
PG03  10698.247710  21276.850953 -11794.841747   -100.059610  5  7  9 169       
PG05   8921.918817 -12748.328632  21432.729184    -45.660219  5  6  5 134       
PG06  25742.488745  -5906.375031  -2870.418031    351.915848  2  7  9 195       
PG07  16425.907069   9158.896967  19097.212283    350.615864  5  9    158       
PG08  -5661.214839  25895.437410    -34.888166    -59.972959 10 11  6 170       
PG09  10031.261067  16000.526979  18647.187149    364.889159  7  9  8 184       
PG10 -21697.755785  -7020.298234 -13679.879078    -51.727882  7  8  7 191       
PG11  -2569.126554  20253.301512 -17585.674737   -688.639226  9  7  4 188       
PG12  -5073.055403 -20685.632094 -16162.629677    383.434135  7  8  4 220       
PG13  12288.531424 -22842.675751   5716.398411    -82.049057  8  8  9 209       
PG14 -16304.203650  10127.879303 -18014.558880    -70.977394  8  9  4 163       
PG15   1184.931675 -26081.718303  -3812.009548   -350.028705  7  4  5 187       
PG16 -10024.751221  10532.149645  22086.018443     33.401695  6  6  5 199       
PG17  15039.627515   -198.551798 -21517.311969   -179.238559  4  6  8 178       
PG18 -21882.521114 -14477.449049  -4184.937260    615.834049 10  9  8 145       
PG19  16567.689591  -8947.205738 -19116.857759   -503.368283  4  9  5 228       
PG20  -7327.812188 -20222.037932  15442.606546    472.527825  3  9  6 199       
PG21 -20898.442873  -5363.908373  16352.603174   -506.555638  3  9  7 172       
PG22   1820.590118  19303.438302 -17882.019939      7.615342  7 10  7 213       
PG23   2817.943352  23909.691059  10951.460428   -211.900765  8  6  8 187       
PG24   1144.076908 -16362.561930 -20935.674193    -34.916999  8  3  8 177       
PG25 -17101.032394 -20039.601088  -4350.642068   -388.527194  6  5  6 174       
PG26 -17598.205408   2722.340739  19728.234321   -503.460960  5  3  5 151       
PG27 -12331.688432  20597.868626  11066.307295    259.010525  9 12  6 188       
PG28  20685.664866  12012.188239 -10911.433096    613.411460  4  8  8 218       
PG29  -6647.610642 -18897.557384  17448.745403    603.659335  8  8  6 218       
PG30  24791.271807   1118.912809   9644.278952    156.675615  3  8  8 183       
PG31 -25945.150001   6582.377512   -671.026462    200.640586  7  9  5 231       
PG32 -15751.618243   1996.925095 -21266.555201   -415.718791  6  7  5 203       
EOF
